KUIPER-00095            
1 65134U 25171C   25252.22702906  .00025665  00000+0  73660-3 0  9997
2 65134  51.8757 266.3268 0003539 257.4408 102.6183 15.35688466  5667
KUIPER-00096            
1 65135U 25171D   25252.28757722  .00033847  00000+0  10087-2 0  9994
2 65135  51.8752 265.9813 0003280  82.1944 277.9414 15.34357646  5671
KUIPER-00097            
1 65136U 25171E   25252.25004630 -.00008298  00000+0 -22491-3 0  9992
2 65136  51.8753 266.2292 0004001 263.1453 218.1272 15.35663658  4678
KUIPER-00098            
1 65137U 25171F   25252.28067897  .00028811  00000+0  81159-3 0  9997
2 65137  51.8758 265.9425 0004694 219.6691 140.3952 15.36205796  5012
KUIPER-00099            
1 65138U 25171G   25252.28301738  .00036543  00000+0  10258-2 0  9995
2 65138  51.8767 265.9586 0004730 230.0508 130.0064 15.36193815  5665
KUIPER-00100            
1 65139U 25171H   25252.28664656  .00029341  00000+0  83365-3 0  9995
2 65139  51.8752 265.9769 0004312 242.4449 117.6099 15.35929364  5664
KUIPER-00102            
1 65140U 25171J   25252.22725578  .00025137  00000+0  72387-3 0  9993
2 65140  51.8761 266.3247 0003746 254.9340 105.1231 15.35593860  5657
KUIPER-00103            
1 65141U 25171K   25251.76811995  .00031193  00000+0  88683-3 0  9996
2 65141  51.8760 268.4999 0003591 241.2244 118.8382 15.35879752  5581
